[{"OBJECT_NAME":"ZHUHAI-1 03C","OBJECT_ID":"2019-060D","EPOCH":"2026-03-09T23:14:25.268928","MEAN_MOTION":15.71109528,"ECCENTRICITY":0.00111308,"INCLINATION":97.5515,"RA_OF_ASC_NODE":231.2826,"ARG_OF_PERICENTER":267.4607,"MEAN_ANOMALY":92.5381,"EPHEMERIS_TYPE":0,"CLASSIFICATION_TYPE":"U","NORAD_CAT_ID":44537,"ELEMENT_SET_NO":999,"REV_AT_EPOCH":36152,"BSTAR":0.00082474362,"MEAN_MOTION_DOT":0.00104963,"MEAN_MOTION_DDOT":0},{"OBJECT_NAME":"STARLINK-11456 [DTC]","OBJECT_ID":"2024-217H","EPOCH":"2026-03-09T10:08:40.445376","MEAN_MOTION":15.69784193,"ECCENTRICITY":0.00010835,"INCLINATION":53.157,"RA_OF_ASC_NODE":72.4227,"ARG_OF_PERICENTER":96.3788,"MEAN_ANOMALY":263.7354,"EPHEMERIS_TYPE":0,"CLASSIFICATION_TYPE":"U","NORAD_CAT_ID":62064,"ELEMENT_SET_NO":999,"REV_AT_EPOCH":7513,"BSTAR":0.0016818235,"MEAN_MOTION_DOT":0.00209019,"MEAN_MOTION_DDOT":0}]
